COSMOS 2564 (761)       
1 54377U 22161A   25013.77060699  .00000074  00000+0  00000+0 0  9992
2 54377  64.7388 209.9639 0007870 204.2046 155.7979  2.13102064 16562
COSMOS 2569 (703K)      
1 57517U 23114A   25012.37850408 -.00000030  00000+0  00000+0 0  9993
2 57517  65.0144  90.2243 0011260 289.6142  70.3101  2.13104134 11169
